IRIDIUM 150             
1 43257U 18030J   24070.92605722  .00000051  00000+0  11151-4 0  9997
2 43257  86.3916 276.6045 0002381  93.5851 266.5617 14.34217943311445
IRIDIUM 143             
1 43258U 18030K   24071.11633576  .00000075  00000+0  19739-4 0  9994
2 43258  86.3918 276.5848 0002516  87.1881 272.9602 14.34217847311437
IRIDIUM 161             
1 43478U 18047C   24070.94263137  .00000236  00000+0  64282-4 0  9990
2 43478  86.4434  74.6186 0002259  90.6950 269.4509 14.43297993305673
IRIDIUM 152             
1 43479U 18047D   24070.94951687  .00000022  00000+0  92405-6 0  9998
2 43479  86.3909  74.4752 0002333  88.0181 272.1282 14.34217860303770
IRIDIUM 147             
1 43480U 18047E   24070.95585748  .00000194  00000+0  62368-4 0  9995
2 43480  86.3910  74.4631 0002073  92.6312 267.5121 14.34219192303778
IRIDIUM 110             
1 43481U 18047F   24070.96220133  .00000233  00000+0  76065-4 0  9994
2 43481  86.3910  74.5309 0002010 100.2949 259.8473 14.34218015303761
IRIDIUM 162             
1 43482U 18047G   24071.07520862  .00000226  00000+0  61120-4 0  9998
2 43482  86.4433  74.4644 0002175  90.0650 270.0800 14.43276765305689
IRIDIUM 160             
1 43569U 18061A   24070.90803640  .00000064  00000+0  15858-4 0  9996
2 43569  86.3966  42.9051 0002040  77.0603 283.0820 14.34216641294658
